[Satellite]
VERSION=1.1
NAME=SL-14 R/B
NICKNAME=SL-14 R/B
TLE1=1 20511U 90018B   19317.84012556  .00000066  00000-0  56441-5 0  9996
TLE2=2 20511  82.5256 214.8905 0018936 106.7769 281.1382 14.80024409602174
STATUS=0
